NORAD_CAT_ID,OBJECT_NAME,OBJECT_TYPE,EPOCH,MEAN_MOTION,ECCENTRICITY,INCLINATION,RA_OF_ASC_NODE,ARG_OF_PERICENTER,MEAN_ANOMALY,BSTAR,MEAN_MOTION_DOT,MEAN_MOTION_DDOT,TLE_LINE0,TLE_LINE1,TLE_LINE2,SEMIMAJOR_AXIS,PERIOD,APOGEE,PERIGEE,DECAYED
56454.0,STARLINK-5959,PAYLOAD,2023-09-13 11:16:42,14.98332256,0.0003726,69.9995,274.3879,268.3974,91.6758,7.7107e-06,-1e-08,0.0,0 STARLINK-5959,1 56454U 23064G   23256.46994183 -.00000001  00000-0  77107-5 0  9990,2 56454  69.9995 274.3879 0003726 268.3974  91.6758 14.98332256 19201,6950.186,96.107,574.641,569.461,0.0
56454.0,STARLINK-5959,PAYLOAD,2023-09-13 19:17:23,14.98331098,0.0003457,70.0001,273.5467,270.8593,89.217,-4.0556e-05,-5.77e-06,0.0,0 STARLINK-5959,1 56454U 23064G   23256.80374451 -.00000577  00000-0 -40556-4 0  9994,2 56454  70.0001 273.5467 0003457 270.8593  89.2170 14.98331098 19251,6950.189,96.107,574.457,569.652,0.0
56454.0,STARLINK-5959,PAYLOAD,2023-09-14 03:18:04,14.98326414,0.0003626,69.9999,272.7048,269.1938,90.8806,-6.4292e-05,-8.6e-06,0.0,0 STARLINK-5959,1 56454U 23064G   23257.13754807 -.00000860  00000-0 -64292-4 0  9996,2 56454  69.9999 272.7048 0003626 269.1938  90.8806 14.98326414 19667,6950.204,96.107,574.589,569.549,0.0
56454.0,STARLINK-5959,PAYLOAD,2023-09-14 11:18:44,14.98320883,0.0003209,70.0002,271.8635,257.8172,102.2627,-4.989e-05,-6.88e-06,0.0,0 STARLINK-5959,1 56454U 23064G   23257.47135252 -.00000688  00000-0 -49890-4 0  9995,2 56454  70.0002 271.8635 0003209 257.8172 102.2627 14.98320883 19357,6950.221,96.108,574.316,569.856,0.0
56454.0,STARLINK-5959,PAYLOAD,2023-09-14 17:43:16,14.98332439,0.0003626,69.9999,271.1902,265.1513,94.9232,-0.0001732,-2.159e-05,0.0,0 STARLINK-5959,1 56454U 23064G   23257.73838835 -.00002159  00000-0 -17320-3 0  9998,2 56454  69.9999 271.1902 0003626 265.1513  94.9232 14.98332439 19396,6950.185,96.107,574.57,569.53,0.0
56454.0,STARLINK-5959,PAYLOAD,2023-09-15 04:56:12,14.98381562,0.0003819,69.9997,270.0117,275.381,84.6913,-0.00090412,-0.00010879,0.0,0 STARLINK-5959,1 56454U 23064G   23258.20570205 -.00010879  00000-0 -90412-3 0  9996,2 56454  69.9997 270.0117 0003819 275.3810  84.6913 14.98381562 19828,6950.033,96.104,574.553,569.244,0.0
56454.0,STARLINK-5959,PAYLOAD,2023-09-15 09:44:37,14.98350674,0.0003152,69.9998,269.5068,264.3326,95.7474,-0.0004275,-5.193e-05,0.0,0 STARLINK-5959,1 56454U 23064G   23258.40598476 -.00005193  00000-0 -42750-3 0  9993,2 56454  69.9998 269.5068 0003152 264.3326  95.7474 14.98350674 19855,6950.129,96.106,574.185,569.803,0.0
56454.0,STARLINK-5959,PAYLOAD,2023-09-15 11:20:45,14.98353013,0.0003187,69.9997,269.3383,265.7028,94.3767,-0.00046573,-5.649e-05,0.0,0 STARLINK-5959,1 56454U 23064G   23258.47274355 -.00005649  00000-0 -46573-3 0  9990,2 56454  69.9997 269.3383 0003187 265.7028  94.3767 14.98353013 19506,6950.122,96.106,574.202,569.772,0.0
56454.0,STARLINK-5959,PAYLOAD,2023-09-15 17:45:17,14.98329169,0.00037,69.9998,268.665,268.4782,91.5953,1.0355e-07,-9.2e-07,0.0,0 STARLINK-5959,1 56454U 23064G   23258.73978803 -.00000092  00000-0  10355-6 0  9996,2 56454  69.9998 268.6650 0003700 268.4782  91.5953 14.98329169 19909,6950.195,96.107,574.632,569.489,0.0
56454.0,STARLINK-5959,PAYLOAD,2023-09-16 11:22:46,14.9832819,0.0003794,69.9998,266.8137,270.8253,89.2472,0.00010097,1.112e-05,0.0,0 STARLINK-5959,1 56454U 23064G   23259.47414692  .00001112  00000-0  10097-3 0  9992,2 56454  69.9998 266.8137 0003794 270.8253  89.2472 14.98328190 19657,6950.198,96.107,574.7,569.427,0.0
56454.0,STARLINK-5959,PAYLOAD,2023-09-16 17:47:18,14.98328368,0.0003791,69.9998,266.1404,270.3231,89.7493,0.00011128,1.235e-05,0.0,0 STARLINK-5959,1 56454U 23064G   23259.74118649  .00001235  00000-0  11128-3 0  9997,2 56454  69.9998 266.1404 0003791 270.3231  89.7493 14.98328368 20056,6950.198,96.107,574.698,569.428,0.0
56454.0,STARLINK-5959,PAYLOAD,2023-09-17 09:48:38,14.98334618,0.0003846,69.9996,264.4572,269.5034,90.5685,7.3042e-05,7.79e-06,0.0,0 STARLINK-5959,1 56454U 23064G   23260.40878204  .00000779  00000-0  73042-4 0  9998,2 56454  69.9996 264.4572 0003846 269.5034  90.5685 14.98334618 19790,6950.179,96.107,574.717,569.371,0.0
56454.0,STARLINK-5959,PAYLOAD,2023-09-17 17:49:19,14.98333748,0.0003843,69.9997,263.6155,270.726,89.3458,2.6322e-05,2.21e-06,0.0,0 STARLINK-5959,1 56454U 23064G   23260.74258266  .00000221  00000-0  26322-4 0  9996,2 56454  69.9997 263.6155 0003843 270.7260  89.3458 14.98333748 20206,6950.181,96.107,574.717,569.375,0.0
56454.0,STARLINK-5959,PAYLOAD,2023-09-18 09:50:39,14.98332584,0.0003809,69.9999,261.9325,269.3262,90.746,-1.3598e-05,-2.55e-06,0.0,0 STARLINK-5959,1 56454U 23064G   23261.41018385 -.00000255  00000-0 -13598-4 0  9997,2 56454  69.9999 261.9325 0003809 269.3262  90.7460 14.98332584 19941,6950.185,96.107,574.697,569.403,0.0
56454.0,STARLINK-5959,PAYLOAD,2023-09-18 17:51:20,14.98331354,0.0003736,70.0001,261.0905,269.2295,90.8436,-2.3095e-05,-3.69e-06,0.0,0 STARLINK-5959,1 56454U 23064G   23261.74398442 -.00000369  00000-0 -23095-4 0  9997,2 56454  70.0001 261.0905 0003736 269.2295  90.8436 14.98331354 20352,6950.189,96.107,574.65,569.457,0.0
56454.0,STARLINK-5959,PAYLOAD,2023-09-20 01:54:01,14.98327333,0.0003687,70.0001,257.7243,269.1841,90.8896,-1.4077e-05,-2.61e-06,0.0,0 STARLINK-5959,1 56454U 23064G   23263.07918397 -.00000261  00000-0 -14077-4 0  9993,2 56454  70.0001 257.7243 0003687 269.1841  90.8896 14.98327333 20554,6950.201,96.107,574.629,569.504,0.0
56454.0,STARLINK-5959,PAYLOAD,2023-09-20 09:54:41,14.98327587,0.0003661,70.0003,256.8837,269.4463,90.6276,-2.792e-05,-4.26e-06,0.0,0 STARLINK-5959,1 56454U 23064G   23263.41298475 -.00000426  00000-0 -27920-4 0  9993,2 56454  70.0003 256.8837 0003661 269.4463  90.6276 14.98327587 20247,6950.2,96.107,574.61,569.521,0.0
56454.0,STARLINK-5959,PAYLOAD,2023-09-20 16:19:14,14.9832696,0.0003612,70.0004,256.2095,269.2594,90.8152,-1.9908e-05,-3.31e-06,0.0,0 STARLINK-5959,1 56454U 23064G   23263.68002531 -.00000331  00000-0 -19908-4 0  9990,2 56454  70.0004 256.2095 0003612 269.2594  90.8152 14.98326960 20280,6950.202,96.107,574.578,569.557,0.0
56454.0,STARLINK-5959,PAYLOAD,2023-09-21 01:56:02,14.98336024,0.0003201,70.0001,255.1996,271.2683,88.8109,-0.0001527,-1.915e-05,0.0,0 STARLINK-5959,1 56454U 23064G   23264.08058442 -.00001915  00000-0 -15270-3 0  9993,2 56454  70.0001 255.1996 0003201 271.2683  88.8109 14.98336024 20709,6950.174,96.107,574.264,569.815,0.0
56454.0,STARLINK-5959,PAYLOAD,2023-09-21 09:56:42,14.98360018,0.00031,70.0002,254.3576,268.2094,91.871,-0.00053289,-6.451e-05,0.0,0 STARLINK-5959,1 56454U 23064G   23264.41437665 -.00006451  00000-0 -53289-3 0  9990,2 56454  70.0002 254.3576 0003100 268.2094  91.8710 14.98360018 20752,6950.1,96.105,574.12,569.811,0.0
56454.0,STARLINK-5959,PAYLOAD,2023-09-21 16:21:14,14.98328757,0.000363,70.0001,253.6844,269.44,90.6344,4.1337e-05,4e-06,0.0,0 STARLINK-5959,1 56454U 23064G   23264.68142276  .00000400  00000-0  41337-4 0  9998,2 56454  70.0001 253.6844 0003630 269.4400  90.6344 14.98328757 20791,6950.197,96.107,574.585,569.539,0.0
56454.0,STARLINK-5959,PAYLOAD,2023-09-22 05:10:19,14.98331719,0.0003052,70.0008,252.3384,248.9824,111.1009,8.3599e-05,9.05e-06,0.0,0 STARLINK-5959,1 56454U 23064G   23265.21549893  .00000905  00000-0  83599-4 0  9990,2 56454  70.0008 252.3384 0003052 248.9824 111.1009 14.98331719 20871,6950.188,96.107,574.174,569.931,0.0
56454.0,STARLINK-5959,PAYLOAD,2023-09-22 08:22:35,14.98331594,0.0003198,70.0003,252.0016,258.6218,101.4582,7.7481e-05,8.32e-06,0.0,0 STARLINK-5959,1 56454U 23064G   23265.34901936  .00000832  00000-0  77481-4 0  9996,2 56454  70.0003 252.0016 0003198 258.6218 101.4582 14.98331594 20533,6950.188,96.107,574.276,569.83,0.0
56454.0,STARLINK-5959,PAYLOAD,2023-09-23 02:00:04,14.98328589,0.0003582,70.0002,250.1496,269.1725,90.9024,7.1362e-06,-8e-08,0.0,0 STARLINK-5959,1 56454U 23064G   23266.08338264 -.00000008  00000-0  71362-5 0  9995,2 56454  70.0002 250.1496 0003582 269.1725  90.9024 14.98328589 21006,6950.197,96.107,574.552,569.573,0.0
56454.0,STARLINK-5959,PAYLOAD,2023-09-23 08:24:36,14.98330359,0.0003594,70.0002,249.4761,270.6498,89.4249,2.0281e-05,1.49e-06,0.0,0 STARLINK-5959,1 56454U 23064G   23266.35042125  .00000149  00000-0  20281-4 0  9991,2 56454  70.0002 249.4761 0003594 270.6498  89.4249 14.98330359 20682,6950.192,96.107,574.555,569.559,0.0
56454.0,STARLINK-5959,PAYLOAD,2023-09-24 02:02:05,14.98328379,0.0003571,70.0004,247.6247,270.5781,89.4969,-6.1426e-05,-8.26e-06,0.0,0 STARLINK-5959,1 56454U 23064G   23267.08478446 -.00000826  00000-0 -61426-4 0  9991,2 56454  70.0004 247.6247 0003571 270.5781  89.4969 14.98328379 21153,6950.198,96.107,574.545,569.581,0.0
56454.0,STARLINK-5959,PAYLOAD,2023-09-24 08:26:37,14.98331799,0.0003552,70.0004,246.9514,270.6359,89.4393,-2.1779e-05,-3.53e-06,0.0,0 STARLINK-5959,1 56454U 23064G   23267.35182113 -.00000353  00000-0 -21779-4 0  9996,2 56454  70.0004 246.9514 0003552 270.6359  89.4393 14.98331799 20838,6950.187,96.107,574.521,569.584,0.0
56454.0,STARLINK-5959,PAYLOAD,2023-09-25 02:04:06,14.98330044,0.0003565,70.0004,245.1,270.4893,89.5857,1.2533e-05,5.6e-07,0.0,0 STARLINK-5959,1 56454U 23064G   23268.08618077  .00000056  00000-0  12533-4 0  9996,2 56454  70.0004 245.1000 0003565 270.4893  89.5857 14.98330044 21305,6950.193,96.107,574.535,569.58,0.0
56454.0,STARLINK-5959,PAYLOAD,2023-09-25 08:28:37,14.98337268,0.0003529,70.0004,244.4263,269.7588,90.3167,8.9392e-05,9.74e-06,0.0,0 STARLINK-5959,1 56454U 23064G   23268.35321348  .00000974  00000-0  89392-4 0  9994,2 56454  70.0004 244.4263 0003529 269.7588  90.3167 14.98337268 21343,6950.17,96.107,574.488,569.583,0.0
56454.0,STARLINK-5959,PAYLOAD,2023-09-26 02:06:06,14.983314,0.0003446,70.0005,242.5747,269.7383,90.3381,3.9575e-05,3.79e-06,0.0,0 STARLINK-5959,1 56454U 23064G   23269.08757657  .00000379  00000-0  39575-4 0  9998,2 56454  70.0005 242.5747 0003446 269.7383  90.3381 14.98331400 21453,6950.189,96.107,574.449,569.659,0.0
